     2              NAVIGATION DATA                         RINEX VERSION / TYPE
CCRINEXN V1.6.0 UX  CDDIS               22-DEC-18 00:53     PGM / RUN BY / DATE 
IGS BROADCAST EPHEMERIS FILE                                COMMENT             
    0.8382D-08 -0.1490D-07 -0.5960D-07  0.1192D-06          ION ALPHA           
    0.9421D+05 -0.1311D+06 -0.1311D+06  0.8520D+06          ION BETA            
   -0.465661287308D-08-0.142108547152D-13   147456     2033 DELTA-UTC: A0,A1,T,W
    18                                                      LEAP SECONDS        
                                                            END OF HEADER       
 7 18 12 22  6  0  0.0 0.660480000079D-04-0.704858393874D-11 0.000000000000D+00
    0.850000000000D+02 0.875937500000D+02 0.424481960692D-08 0.195679163028D+00
    0.465102493763D-05 0.121192506049D-01 0.124853104353D-04 0.515363287544D+04
    0.540000000000D+06 0.353902578354D-07 0.305170642590D+01 0.210478901863D-06
    0.957149099548D+00 0.138968750000D+03-0.248155170341D+01-0.791104337594D-08
   -0.348585937893D-09 0.100000000000D+01 0.203200000000D+04 0.000000000000D+00
    0.200000000000D+01 0.000000000000D+00-0.111758708954D-07 0.850000000000D+02
    0.532830000000D+06 0.000000000000D+00 0.000000000000D+00 0.000000000000D+00
 8 18 12 22  6  0  0.0-0.126421917230D-03-0.125055521494D-11 0.000000000000D+00
    0.590000000000D+02-0.960625000000D+02 0.465876537348D-08-0.288609888110D+01
   -0.484287738800D-05 0.399253144860D-02 0.129453837872D-05 0.515366894531D+04
    0.540000000000D+06-0.104308128357D-06-0.116616907336D+01 0.372529029846D-08
    0.969811524497D+00 0.359031250000D+03-0.404433444585D+00-0.833677571421D-08
   -0.213223161349D-09 0.100000000000D+01 0.203200000000D+04 0.000000000000D+00
    0.200000000000D+01 0.000000000000D+00 0.512227416039D-08 0.590000000000D+02
    0.532830000000D+06 0.000000000000D+00 0.000000000000D+00 0.000000000000D+00
 9 18 12 22  6  0  0.0 0.480581540614D-03-0.409272615798D-11 0.000000000000D+00
    0.400000000000D+02-0.230937500000D+02 0.505235320247D-08-0.285186818239D+01
   -0.113248825073D-05 0.145700573921D-02 0.617280602455D-05 0.515375617600D+04
    0.540000000000D+06 0.745058059692D-08 0.197506107352D+01 0.372529029846D-08
    0.952071147048D+00 0.256781250000D+03 0.168639859014D+01-0.815712564162D-08
   -0.491449048123D-09 0.100000000000D+01 0.203200000000D+04 0.000000000000D+00
    0.200000000000D+01 0.000000000000D+00 0.139698386192D-08 0.400000000000D+02
    0.532830000000D+06 0.000000000000D+00 0.000000000000D+00 0.000000000000D+00
10 18 12 22  6  0  0.0 0.147966202348D-03-0.568434188608D-11 0.000000000000D+00
    0.270000000000D+02 0.239375000000D+02 0.463162149706D-08-0.114861096087D+01
    0.115483999252D-05 0.412326492369D-02 0.809319317341D-05 0.515365690613D+04
    0.540000000000D+06 0.633299350738D-07 0.938539899440D+00-0.987201929092D-07
    0.961929412587D+00 0.226156250000D+03-0.280555870452D+01-0.794283085079D-08
    0.545379860117D-09 0.100000000000D+01 0.203200000000D+04 0.000000000000D+00
    0.200000000000D+01 0.000000000000D+00 0.186264514923D-08 0.270000000000D+02
    0.532818000000D+06 0.400000000000D+01 0.000000000000D+00 0.000000000000D+00
11 18 12 22  6  0  0.0-0.685581006110D-03 0.477484718431D-11 0.000000000000D+00
    0.990000000000D+02-0.156218750000D+03 0.578488368319D-08 0.154008187311D+00
   -0.818446278572D-05 0.166487274691D-01 0.773370265961D-05 0.515367992973D+04
    0.540000000000D+06-0.160187482834D-06-0.540793489968D+00-0.128522515297D-06
    0.908021848355D+00 0.205812500000D+03 0.184918295467D+01-0.898894558787D-08
   -0.223937896004D-09 0.100000000000D+01 0.203200000000D+04 0.000000000000D+00
    0.280000000000D+01 0.000000000000D+00-0.121071934700D-07 0.990000000000D+02
    0.532830000000D+06 0.000000000000D+00 0.000000000000D+00 0.000000000000D+00
12 18 12 22  6  0  0.0 0.282571651042D-03-0.295585778076D-11 0.000000000000D+00
    0.330000000000D+02 0.127531250000D+03 0.428196407528D-08-0.462429866312D+00
    0.676885247230D-05 0.717928342056D-02 0.332482159138D-05 0.515372787094D+04
    0.540000000000D+06-0.596046447754D-07-0.213488429144D+01 0.745058059692D-07
    0.984557728496D+00 0.332437500000D+03 0.102312266434D+01-0.827355891265D-08
    0.396445084958D-09 0.100000000000D+01 0.203200000000D+04 0.000000000000D+00
    0.200000000000D+01 0.000000000000D+00-0.125728547573D-07 0.330000000000D+02
    0.532800000000D+06 0.000000000000D+00 0.000000000000D+00 0.000000000000D+00
13 18 12 22  6  0  0.0-0.808225013316D-04 0.125055521494D-11 0.000000000000D+00
    0.740000000000D+02-0.235000000000D+02 0.462304971143D-08 0.187594225719D+01
   -0.125169754028D-05 0.370666349772D-02 0.707432627678D-05 0.515365669060D+04
    0.540000000000D+06 0.596046447754D-07 0.210994996898D+01-0.108033418655D-06
    0.967732112258D+00 0.247000000000D+03 0.139717556337D+01-0.797104631179D-08
   -0.555380276675D-09 0.100000000000D+01 0.203200000000D+04 0.000000000000D+00
    0.200000000000D+01 0.000000000000D+00-0.111758708954D-07 0.740000000000D+02
    0.000000000000D+00 0.400000000000D+01 0.000000000000D+00 0.000000000000D+00
14 18 12 22  6  0  0.0-0.943015329540D-04 0.568434188608D-12 0.000000000000D+00
    0.390000000000D+02-0.283437500000D+02 0.466555148180D-08 0.276589616318D+01
   -0.146403908730D-05 0.100092375651D-01 0.675208866596D-05 0.515364816856D+04
    0.540000000000D+06 0.447034835815D-07 0.206661420566D+01-0.968575477600D-07
    0.960262844608D+00 0.246531250000D+03-0.194870498194D+01-0.786247036059D-08
   -0.511092717635D-09 0.100000000000D+01 0.203200000000D+04 0.000000000000D+00
    0.200000000000D+01 0.000000000000D+00-0.977888703346D-08 0.390000000000D+02
    0.532818000000D+06 0.400000000000D+01 0.000000000000D+00 0.000000000000D+00
15 18 12 22  6  0  0.0-0.335321761668D-03 0.147792889038D-11 0.000000000000D+00
    0.370000000000D+02-0.231875000000D+02 0.574059626173D-08 0.211297093724D+01
   -0.135786831379D-05 0.111428827513D-01 0.530295073986D-05 0.515359963226D+04
    0.540000000000D+06-0.176951289177D-06 0.189901191354D+01-0.160187482834D-06
    0.927551049847D+00 0.263031250000D+03 0.748994187231D+00-0.855249910306D-08
   -0.383944564261D-09 0.100000000000D+01 0.203200000000D+04 0.000000000000D+00
    0.200000000000D+01 0.000000000000D+00-0.111758708954D-07 0.370000000000D+02
    0.000000000000D+00 0.400000000000D+01 0.000000000000D+00 0.000000000000D+00
16 18 12 22  6  0  0.0-0.807596370578D-05-0.227373675443D-11 0.000000000000D+00
    0.113000000000D+03 0.121000000000D+03 0.416767376166D-08-0.233850088370D+01
    0.603310763836D-05 0.102883107029D-01 0.241398811340D-05 0.515374743080D+04
    0.540000000000D+06 0.782310962677D-07-0.211597125495D+01-0.141561031342D-06
    0.984928971754D+00 0.347968750000D+03 0.522188710799D+00-0.802890554041D-08
    0.435375291374D-09 0.100000000000D+01 0.203200000000D+04 0.000000000000D+00
    0.200000000000D+01 0.000000000000D+00-0.107102096081D-07 0.113000000000D+03
    0.532830000000D+06 0.000000000000D+00 0.000000000000D+00 0.000000000000D+00
17 18 12 22  6  0  0.0-0.153188593686D-04 0.511590769747D-11 0.000000000000D+00
    0.820000000000D+02-0.128125000000D+03 0.430125046691D-08 0.299634559885D+01
   -0.646524131298D-05 0.130031948211D-01 0.959262251854D-06 0.515366543198D+04
    0.540000000000D+06 0.193715095520D-06-0.110076629385D+01-0.104308128357D-06
    0.983502976264D+00 0.371187500000D+03-0.174558515570D+01-0.810783795657D-08
   -0.365729529994D-09 0.100000000000D+01 0.203200000000D+04 0.000000000000D+00
    0.200000000000D+01 0.000000000000D+00-0.111758708954D-07 0.820000000000D+02
    0.532830000000D+06 0.000000000000D+00 0.000000000000D+00 0.000000000000D+00
20 18 12 22  6  0  0.0 0.520234927535D-03 0.454747350886D-12 0.000000000000D+00
    0.540000000000D+02 0.179687500000D+02 0.533272212928D-08 0.600302017469D+00
    0.726431608200D-06 0.448438024614D-02 0.861100852490D-05 0.515366757202D+04
    0.540000000000D+06 0.186264514923D-08 0.825356015231D+00-0.104308128357D-06
    0.929558192470D+00 0.200281250000D+03 0.220952407760D+01-0.837284876276D-08
    0.541093967307D-09 0.100000000000D+01 0.203200000000D+04 0.000000000000D+00
    0.200000000000D+01 0.000000000000D+00-0.838190317154D-08 0.540000000000D+02
    0.532800000000D+06 0.400000000000D+01 0.000000000000D+00 0.000000000000D+00
21 18 12 22  6  0  0.0-0.283017754555D-03 0.670752342558D-11 0.000000000000D+00
    0.820000000000D+02-0.978437500000D+02 0.462304971143D-08-0.909854274671D+00
   -0.513531267643D-05 0.245888611535D-01 0.112093985081D-04 0.515357466126D+04
    0.540000000000D+06-0.426545739174D-06-0.160256689323D+00 0.154599547386D-06
    0.946909511245D+00 0.161000000000D+03-0.150193765055D+01-0.843035115796D-08
    0.103932900651D-09 0.100000000000D+01 0.203200000000D+04 0.000000000000D+00
    0.200000000000D+01 0.000000000000D+00-0.977888703346D-08 0.820000000000D+02
    0.532818000000D+06 0.400000000000D+01 0.000000000000D+00 0.000000000000D+00
22 18 12 22  6  0  0.0-0.604558270425D-03-0.909494701773D-11 0.000000000000D+00
    0.480000000000D+02 0.295625000000D+02 0.550308643099D-08 0.223732489587D+01
    0.143051147461D-05 0.701897474937D-02 0.777654349804D-05 0.515361997795D+04
    0.540000000000D+06 0.109896063805D-06 0.874546148495D+00 0.931322574616D-08
    0.926238225700D+00 0.207531250000D+03-0.144457737144D+01-0.828498780692D-08
    0.583238568552D-09 0.100000000000D+01 0.203200000000D+04 0.000000000000D+00
    0.200000000000D+01 0.000000000000D+00-0.181607902050D-07 0.480000000000D+02
    0.532830000000D+06 0.000000000000D+00 0.000000000000D+00 0.000000000000D+00
